{
  "norad_id": 58178,
  "name": "STARLINK-30810",
  "history": [
    {
      "epoch": "2026-03-28T13:06:15.372864Z",
      "apogee_km": 483.5454347192708,
      "perigee_km": 482.53272512987405,
      "latitude_deg": -1.4548635358735112e-05,
      "longitude_deg": 13.977121843574992,
      "height_km": 482.73359220599644,
      "semi_major_axis_km": 6861.176079924572,
      "eccentricity": 7.38e-05,
      "inclination_deg": 43.005,
      "raan_deg": 36.5061,
      "arg_perigee_deg": 279.3394,
      "mean_anomaly_deg": 80.7374,
      "mean_motion_rev_day": 15.27583345
    }
  ]
}