{"fetched_at":"2026-03-29T02:12:04Z","count":15717,"tles":[{"name":"STARLINK-30810","line1":"1 58178U 23167D   26087.54601127  .00003006  00000+0  11870-3 0  9995","line2":"2 58178  43.0050  36.5061 0000737 279.3394  80.7374 15.27583345133872","category":"Starlink"}]}